[
{
"COMMENT": "GENERATED VIA SPACETRACK.ORG API",
"ORIGINATOR": "JSPOC",
"NORAD_CAT_ID": "25114",
"OBJECT_NAME": "ORBCOMM FM 11",
"OBJECT_TYPE": "PAYLOAD",
"CLASSIFICATION_TYPE": "U",
"INTLDES": "97084C",
"EPOCH": "2018-01-01 04:36:51",
"EPOCH_MICROSECONDS": "561216",
"MEAN_MOTION": "14.38664227",
"ECCENTRICITY": "0.0007525",
"INCLINATION": "45.0174",
"RA_OF_ASC_NODE": "8.3073",
"ARG_OF_PERICENTER": "215.1427",
"MEAN_ANOMALY": "144.8926",
"EPHEMERIS_TYPE": "0",
"ELEMENT_SET_NO": "999",
"REV_AT_EPOCH": "4882",
"BSTAR": "7.2602e-05",
"MEAN_MOTION_DOT": "8.2e-07",
"MEAN_MOTION_DDOT": "0",
"FILE": "2228996",
"TLE_LINE0": "0 ORBCOMM FM 11",
"TLE_LINE1": "1 25114U 97084C   18001.19226344  .00000082  00000-0  72602-4 0  9993",
"TLE_LINE2": "2 25114  45.0174   8.3073 0007525 215.1427 144.8926 14.38664227 48827",
"OBJECT_ID": "1997-084C",
"OBJECT_NUMBER": "25114",
"SEMIMAJOR_AXIS": "7141.052",
"PERIOD": "100.092",
"APOGEE": "768.290",
"PERIGEE": "757.543"
},
{
"COMMENT": "GENERATED VIA SPACETRACK.ORG API",
"ORIGINATOR": "JSPOC",
"NORAD_CAT_ID": "25114",
"OBJECT_NAME": "ORBCOMM FM 11",
"OBJECT_TYPE": "PAYLOAD",
"CLASSIFICATION_TYPE": "U",
"INTLDES": "97084C",
"EPOCH": "2018-01-01 11:16:50",
"EPOCH_MICROSECONDS": "539296",
"MEAN_MOTION": "14.38664323",
"ECCENTRICITY": "0.0007533",
"INCLINATION": "45.0174",
"RA_OF_ASC_NODE": "6.9893",
"ARG_OF_PERICENTER": "216.4598",
"MEAN_ANOMALY": "143.5739",
"EPHEMERIS_TYPE": "0",
"ELEMENT_SET_NO": "999",
"REV_AT_EPOCH": "4883",
"BSTAR": "7.1906e-05",
"MEAN_MOTION_DOT": "8e-07",
"MEAN_MOTION_DDOT": "0",
"FILE": "2229366",
"TLE_LINE0": "0 ORBCOMM FM 11",
"TLE_LINE1": "1 25114U 97084C   18001.47002939 +.00000080 +00000-0 +71906-4 0  9990",
"TLE_LINE2": "2 25114 045.0174 006.9893 0007533 216.4598 143.5739 14.38664323048839",
"OBJECT_ID": "1997-084C",
"OBJECT_NUMBER": "25114",
"SEMIMAJOR_AXIS": "7141.051",
"PERIOD": "100.092",
"APOGEE": "768.296",
"PERIGEE": "757.537"
},
{
"COMMENT": "GENERATED VIA SPACETRACK.ORG API",
"ORIGINATOR": "JSPOC",
"NORAD_CAT_ID": "25114",
"OBJECT_NAME": "ORBCOMM FM 11",
"OBJECT_TYPE": "PAYLOAD",
"CLASSIFICATION_TYPE": "U",
"INTLDES": "97084C",
"EPOCH": "2018-01-01 22:56:48",
"EPOCH_MICROSECONDS": "738624",
"MEAN_MOTION": "14.38664544",
"ECCENTRICITY": "0.0007556",
"INCLINATION": "45.0174",
"RA_OF_ASC_NODE": "4.6827",
"ARG_OF_PERICENTER": "218.8264",
"MEAN_ANOMALY": "141.2043",
"EPHEMERIS_TYPE": "0",
"ELEMENT_SET_NO": "999",
"REV_AT_EPOCH": "4890",
"BSTAR": "7.311e-05",
"MEAN_MOTION_DOT": "8.4e-07",
"MEAN_MOTION_DDOT": "0",
"FILE": "2229437",
"TLE_LINE0": "0 ORBCOMM FM 11",
"TLE_LINE1": "1 25114U 97084C   18001.95611966 +.00000084 +00000-0 +73110-4 0  9992",
"TLE_LINE2": "2 25114 045.0174 004.6827 0007556 218.8264 141.2043 14.38664544048908",
"OBJECT_ID": "1997-084C",
"OBJECT_NUMBER": "25114",
"SEMIMAJOR_AXIS": "7141.051",
"PERIOD": "100.092",
"APOGEE": "768.311",
"PERIGEE": "757.520"
},
{
"COMMENT": "GENERATED VIA SPACETRACK.ORG API",
"ORIGINATOR": "JSPOC",
"NORAD_CAT_ID": "25114",
"OBJECT_NAME": "ORBCOMM FM 11",
"OBJECT_TYPE": "PAYLOAD",
"CLASSIFICATION_TYPE": "U",
"INTLDES": "97084C",
"EPOCH": "2018-01-02 10:36:46",
"EPOCH_MICROSECONDS": "947456",
"MEAN_MOTION": "14.38664664",
"ECCENTRICITY": "0.0007577",
"INCLINATION": "45.0174",
"RA_OF_ASC_NODE": "2.3763",
"ARG_OF_PERICENTER": "221.0693",
"MEAN_ANOMALY": "138.9586",
"EPHEMERIS_TYPE": "0",
"ELEMENT_SET_NO": "999",
"REV_AT_EPOCH": "4900",
"BSTAR": "6.9742e-05",
"MEAN_MOTION_DOT": "7.3e-07",
"MEAN_MOTION_DDOT": "0",
"FILE": "2229626",
"TLE_LINE0": "0 ORBCOMM FM 11",
"TLE_LINE1": "1 25114U 97084C   18002.44221004  .00000073  00000-0  69742-4 0  9991",
"TLE_LINE2": "2 25114  45.0174   2.3763 0007577 221.0693 138.9586 14.38664664 49007",
"OBJECT_ID": "1997-084C",
"OBJECT_NUMBER": "25114",
"SEMIMAJOR_AXIS": "7141.050",
"PERIOD": "100.092",
"APOGEE": "768.326",
"PERIGEE": "757.505"
},
{
"COMMENT": "GENERATED VIA SPACETRACK.ORG API",
"ORIGINATOR": "JSPOC",
"NORAD_CAT_ID": "25114",
"OBJECT_NAME": "ORBCOMM FM 11",
"OBJECT_TYPE": "PAYLOAD",
"CLASSIFICATION_TYPE": "U",
"INTLDES": "97084C",
"EPOCH": "2018-01-03 11:36:43",
"EPOCH_MICROSECONDS": "85664",
"MEAN_MOTION": "14.38664927",
"ECCENTRICITY": "0.0007624",
"INCLINATION": "45.0173",
"RA_OF_ASC_NODE": "357.4338",
"ARG_OF_PERICENTER": "225.9443",
"MEAN_ANOMALY": "134.0778",
"EPHEMERIS_TYPE": "0",
"ELEMENT_SET_NO": "999",
"REV_AT_EPOCH": "4915",
"BSTAR": "6.2375e-05",
"MEAN_MOTION_DOT": "5e-07",
"MEAN_MOTION_DDOT": "0",
"FILE": "2230064",
"TLE_LINE0": "0 ORBCOMM FM 11",
"TLE_LINE1": "1 25114U 97084C   18003.48383201  .00000050  00000-0  62375-4 0  9994",
"TLE_LINE2": "2 25114  45.0173 357.4338 0007624 225.9443 134.0778 14.38664927 49155",
"OBJECT_ID": "1997-084C",
"OBJECT_NUMBER": "25114",
"SEMIMAJOR_AXIS": "7141.049",
"PERIOD": "100.092",
"APOGEE": "768.359",
"PERIGEE": "757.470"
},
{
"COMMENT": "GENERATED VIA SPACETRACK.ORG API",
"ORIGINATOR": "JSPOC",
"NORAD_CAT_ID": "25114",
"OBJECT_NAME": "ORBCOMM FM 11",
"OBJECT_TYPE": "PAYLOAD",
"CLASSIFICATION_TYPE": "U",
"INTLDES": "97084C",
"EPOCH": "2018-01-03 23:16:41",
"EPOCH_MICROSECONDS": "274624",
"MEAN_MOTION": "14.38665081",
"ECCENTRICITY": "0.0007644",
"INCLINATION": "45.0173",
"RA_OF_ASC_NODE": "355.1271",
"ARG_OF_PERICENTER": "228.2463",
"MEAN_ANOMALY": "131.7733",
"EPHEMERIS_TYPE": "0",
"ELEMENT_SET_NO": "999",
"REV_AT_EPOCH": "4919",
"BSTAR": "6.1434e-05",
"MEAN_MOTION_DOT": "4.7e-07",
"MEAN_MOTION_DDOT": "0",
"FILE": "2230307",
"TLE_LINE0": "0 ORBCOMM FM 11",
"TLE_LINE1": "1 25114U 97084C   18003.96992216 +.00000047 +00000-0 +61434-4 0  9990",
"TLE_LINE2": "2 25114 045.0173 355.1271 0007644 228.2463 131.7733 14.38665081049197",
"OBJECT_ID": "1997-084C",
"OBJECT_NUMBER": "25114",
"SEMIMAJOR_AXIS": "7141.049",
"PERIOD": "100.092",
"APOGEE": "768.373",
"PERIGEE": "757.455"
},
{
"COMMENT": "GENERATED VIA SPACETRACK.ORG API",
"ORIGINATOR": "JSPOC",
"NORAD_CAT_ID": "40091",
"OBJECT_NAME": "ORBCOMM FM 103",
"OBJECT_TYPE": "PAYLOAD",
"CLASSIFICATION_TYPE": "U",
"INTLDES": "14040F",
"EPOCH": "2018-01-01 03:11:03",
"EPOCH_MICROSECONDS": "533856",
"MEAN_MOTION": "14.54664331",
"ECCENTRICITY": "0.0001857",
"INCLINATION": "47.0054",
"RA_OF_ASC_NODE": "225.8285",
"ARG_OF_PERICENTER": "85.8819",
"MEAN_ANOMALY": "274.2277",
"EPHEMERIS_TYPE": "0",
"ELEMENT_SET_NO": "999",
"REV_AT_EPOCH": "18435",
"BSTAR": "3.7598e-05",
"MEAN_MOTION_DOT": "-3e-08",
"MEAN_MOTION_DDOT": "0",
"FILE": "2229035",
"TLE_LINE0": "0 ORBCOMM FM 103",
"TLE_LINE1": "1 40091U 14040F   18001.13267979 -.00000003  00000-0  37598-4 0  9997",
"TLE_LINE2": "2 40091  47.0054 225.8285 0001857  85.8819 274.2277 14.54664331184357",
"OBJECT_ID": "2014-040F",
"OBJECT_NUMBER": "40091",
"SEMIMAJOR_AXIS": "7088.592",
"PERIOD": "98.991",
"APOGEE": "711.773",
"PERIGEE": "709.140"
},
{
"COMMENT": "GENERATED VIA SPACETRACK.ORG API",
"ORIGINATOR": "JSPOC",
"NORAD_CAT_ID": "40091",
"OBJECT_NAME": "ORBCOMM FM 103",
"OBJECT_TYPE": "PAYLOAD",
"CLASSIFICATION_TYPE": "U",
"INTLDES": "14040F",
"EPOCH": "2018-01-01 14:43:23",
"EPOCH_MICROSECONDS": "982528",
"MEAN_MOTION": "14.54664469",
"ECCENTRICITY": "0.0001851",
"INCLINATION": "47.0053",
"RA_OF_ASC_NODE": "223.5705",
"ARG_OF_PERICENTER": "88.9708",
"MEAN_ANOMALY": "271.1388",
"EPHEMERIS_TYPE": "0",
"ELEMENT_SET_NO": "999",
"REV_AT_EPOCH": "16750",
"BSTAR": "3.7515e-05",
"MEAN_MOTION_DOT": "-4e-08",
"MEAN_MOTION_DDOT": "0",
"FILE": "2229366",
"TLE_LINE0": "0 ORBCOMM FM 103",
"TLE_LINE1": "1 40091U 14040F   18001.61347202 -.00000004 +00000-0 +37515-4 0  9998",
"TLE_LINE2": "2 40091 047.0053 223.5705 0001851 088.9708 271.1388 14.54664469167502",
"OBJECT_ID": "2014-040F",
"OBJECT_NUMBER": "40091",
"SEMIMAJOR_AXIS": "7088.591",
"PERIOD": "98.991",
"APOGEE": "711.768",
"PERIGEE": "709.144"
},
{
"COMMENT": "GENERATED VIA SPACETRACK.ORG API",
"ORIGINATOR": "JSPOC",
"NORAD_CAT_ID": "40091",
"OBJECT_NAME": "ORBCOMM FM 103",
"OBJECT_TYPE": "PAYLOAD",
"CLASSIFICATION_TYPE": "U",
"INTLDES": "14040F",
"EPOCH": "2018-01-01 21:19:01",
"EPOCH_MICROSECONDS": "374240",
"MEAN_MOTION": "14.54664601",
"ECCENTRICITY": "0.0001857",
"INCLINATION": "47.0053",
"RA_OF_ASC_NODE": "222.2803",
"ARG_OF_PERICENTER": "90.9408",
"MEAN_ANOMALY": "269.1689",
"EPHEMERIS_TYPE": "0",
"ELEMENT_SET_NO": "999",
"REV_AT_EPOCH": "16754",
"BSTAR": "3.8304e-05",
"MEAN_MOTION_DOT": "0",
"MEAN_MOTION_DDOT": "0",
"FILE": "2229437",
"TLE_LINE0": "0 ORBCOMM FM 103",
"TLE_LINE1": "1 40091U 14040F   18001.88821035 -.00000000 +00000-0 +38304-4 0  9991",
"TLE_LINE2": "2 40091 047.0053 222.2803 0001857 090.9408 269.1689 14.54664601167546",
"OBJECT_ID": "2014-040F",
"OBJECT_NUMBER": "40091",
"SEMIMAJOR_AXIS": "7088.591",
"PERIOD": "98.991",
"APOGEE": "711.772",
"PERIGEE": "709.139"
},
{
"COMMENT": "GENERATED VIA SPACETRACK.ORG API",
"ORIGINATOR": "JSPOC",
"NORAD_CAT_ID": "40091",
"OBJECT_NAME": "ORBCOMM FM 103",
"OBJECT_TYPE": "PAYLOAD",
"CLASSIFICATION_TYPE": "U",
"INTLDES": "14040F",
"EPOCH": "2018-01-02 13:48:04",
"EPOCH_MICROSECONDS": "854816",
"MEAN_MOTION": "14.54664832",
"ECCENTRICITY": "0.0001862",
"INCLINATION": "47.0053",
"RA_OF_ASC_NODE": "219.0547",
"ARG_OF_PERICENTER": "95.3621",
"MEAN_ANOMALY": "264.7476",
"EPHEMERIS_TYPE": "0",
"ELEMENT_SET_NO": "999",
"REV_AT_EPOCH": "16764",
"BSTAR": "3.7705e-05",
"MEAN_MOTION_DOT": "-3e-08",
"MEAN_MOTION_DDOT": "0",
"FILE": "2229858",
"TLE_LINE0": "0 ORBCOMM FM 103",
"TLE_LINE1": "1 40091U 14040F   18002.57505619 -.00000003 +00000-0 +37705-4 0  9992",
"TLE_LINE2": "2 40091 047.0053 219.0547 0001862 095.3621 264.7476 14.54664832167649",
"OBJECT_ID": "2014-040F",
"OBJECT_NUMBER": "40091",
"SEMIMAJOR_AXIS": "7088.590",
"PERIOD": "98.991",
"APOGEE": "711.775",
"PERIGEE": "709.135"
}
]
